CCSDS_OMM_VERS = 2.0
CREATION_DATE  = 
ORIGINATOR     = 

OBJECT_NAME    = UNKNOWN
OBJECT_ID      = 
CENTER_NAME    = EARTH
REF_FRAME      = TEME
TIME_SYSTEM    = UTC
MEAN_ELEMENT_THEORY = SGP/SGP4

EPOCH          = 2026-01-17T07:55:32.621088
MEAN_MOTION    = 14.02598005
ECCENTRICITY   = .00308657
INCLINATION    = 82.5291
RA_OF_ASC_NODE = 41.8705
ARG_OF_PERICENTER = 176.5244
MEAN_ANOMALY   = 183.6148

EPHEMERIS_TYPE = 0
CLASSIFICATION_TYPE = U
NORAD_CAT_ID   = 270202
ELEMENT_SET_NO = 999
REV_AT_EPOCH   = 31263
BSTAR          = .13698847E-2
MEAN_MOTION_DOT = .2134E-4
MEAN_MOTION_DDOT = 0

CCSDS_OMM_VERS = 2.0
CREATION_DATE  = 
ORIGINATOR     = 

OBJECT_NAME    = UNKNOWN
OBJECT_ID      = 
CENTER_NAME    = EARTH
REF_FRAME      = TEME
TIME_SYSTEM    = UTC
MEAN_ELEMENT_THEORY = SGP/SGP4

EPOCH          = 2026-01-17T06:27:28.249344
MEAN_MOTION    = 13.00605270
ECCENTRICITY   = .00352039
INCLINATION    = 90.2467
RA_OF_ASC_NODE = 9.0395
ARG_OF_PERICENTER = 306.1119
MEAN_ANOMALY   = 53.6746

EPHEMERIS_TYPE = 0
CLASSIFICATION_TYPE = U
NORAD_CAT_ID   = 270203
ELEMENT_SET_NO = 999
REV_AT_EPOCH   = 29088
BSTAR          = .35784129E-2
MEAN_MOTION_DOT = .1096E-4
MEAN_MOTION_DDOT = 0

CCSDS_OMM_VERS = 2.0
CREATION_DATE  = 
ORIGINATOR     = 

OBJECT_NAME    = UNKNOWN
OBJECT_ID      = 
CENTER_NAME    = EARTH
REF_FRAME      = TEME
TIME_SYSTEM    = UTC
MEAN_ELEMENT_THEORY = SGP/SGP4

EPOCH          = 2026-01-17T15:18:36.107424
MEAN_MOTION    = 13.87073509
ECCENTRICITY   = .00655583
INCLINATION    = 89.9283
RA_OF_ASC_NODE = 346.2807
ARG_OF_PERICENTER = 91.5895
MEAN_ANOMALY   = 269.2788

EPHEMERIS_TYPE = 0
CLASSIFICATION_TYPE = U
NORAD_CAT_ID   = 270204
ELEMENT_SET_NO = 999
REV_AT_EPOCH   = 30879
BSTAR          = .29708957E-2
MEAN_MOTION_DOT = .3551E-4
MEAN_MOTION_DDOT = 0

CCSDS_OMM_VERS = 2.0
CREATION_DATE  = 
ORIGINATOR     = 

OBJECT_NAME    = UNKNOWN
OBJECT_ID      = 
CENTER_NAME    = EARTH
REF_FRAME      = TEME
TIME_SYSTEM    = UTC
MEAN_ELEMENT_THEORY = SGP/SGP4

EPOCH          = 2026-01-13T05:18:53.777664
MEAN_MOTION    = 12.25229432
ECCENTRICITY   = .01008496
INCLINATION    = 47.2250
RA_OF_ASC_NODE = 189.4887
ARG_OF_PERICENTER = 35.2393
MEAN_ANOMALY   = 325.5014

EPHEMERIS_TYPE = 0
CLASSIFICATION_TYPE = U
NORAD_CAT_ID   = 270205
ELEMENT_SET_NO = 999
REV_AT_EPOCH   = 3504
BSTAR          = .3734356E-2
MEAN_MOTION_DOT = .333E-5
MEAN_MOTION_DDOT = 0

CCSDS_OMM_VERS = 2.0
CREATION_DATE  = 
ORIGINATOR     = 

OBJECT_NAME    = UNKNOWN
OBJECT_ID      = 
CENTER_NAME    = EARTH
REF_FRAME      = TEME
TIME_SYSTEM    = UTC
MEAN_ELEMENT_THEORY = SGP/SGP4

EPOCH          = 2026-01-05T09:08:46.249440
MEAN_MOTION    = 14.32117109
ECCENTRICITY   = .00511973
INCLINATION    = 98.5228
RA_OF_ASC_NODE = 50.8258
ARG_OF_PERICENTER = 41.2100
MEAN_ANOMALY   = 319.2932

EPHEMERIS_TYPE = 0
CLASSIFICATION_TYPE = U
NORAD_CAT_ID   = 270207
ELEMENT_SET_NO = 999
REV_AT_EPOCH   = 31680
BSTAR          = .91412232E-3
MEAN_MOTION_DOT = .2452E-4
MEAN_MOTION_DDOT = 0

CCSDS_OMM_VERS = 2.0
CREATION_DATE  = 
ORIGINATOR     = 

OBJECT_NAME    = UNKNOWN
OBJECT_ID      = 
CENTER_NAME    = EARTH
REF_FRAME      = TEME
TIME_SYSTEM    = UTC
MEAN_ELEMENT_THEORY = SGP/SGP4

EPOCH          = 2026-01-17T08:52:24.246912
MEAN_MOTION    = 14.37182687
ECCENTRICITY   = .00024675
INCLINATION    = 86.3922
RA_OF_ASC_NODE = 55.0566
ARG_OF_PERICENTER = 89.7433
MEAN_ANOMALY   = 270.4047

EPHEMERIS_TYPE = 0
CLASSIFICATION_TYPE = U
NORAD_CAT_ID   = 270209
ELEMENT_SET_NO = 999
REV_AT_EPOCH   = 31888
BSTAR          = .15428883E-3
MEAN_MOTION_DOT = .478E-5
MEAN_MOTION_DDOT = 0

CCSDS_OMM_VERS = 2.0
CREATION_DATE  = 
ORIGINATOR     = 

OBJECT_NAME    = UNKNOWN
OBJECT_ID      = 
CENTER_NAME    = EARTH
REF_FRAME      = TEME
TIME_SYSTEM    = UTC
MEAN_ELEMENT_THEORY = SGP/SGP4

EPOCH          = 2026-01-16T10:39:53.272512
MEAN_MOTION    = 14.37237054
ECCENTRICITY   = .00024426
INCLINATION    = 86.3941
RA_OF_ASC_NODE = 23.7498
ARG_OF_PERICENTER = 72.2977
MEAN_ANOMALY   = 287.8487

EPHEMERIS_TYPE = 0
CLASSIFICATION_TYPE = U
NORAD_CAT_ID   = 270210
ELEMENT_SET_NO = 999
REV_AT_EPOCH   = 31878
BSTAR          = .14494088E-3
MEAN_MOTION_DOT = .451E-5
MEAN_MOTION_DDOT = 0

CCSDS_OMM_VERS = 2.0
CREATION_DATE  = 
ORIGINATOR     = 

OBJECT_NAME    = UNKNOWN
OBJECT_ID      = 
CENTER_NAME    = EARTH
REF_FRAME      = TEME
TIME_SYSTEM    = UTC
MEAN_ELEMENT_THEORY = SGP/SGP4

EPOCH          = 2026-01-17T09:57:54.369504
MEAN_MOTION    = 12.88820200
ECCENTRICITY   = .02129744
INCLINATION    = 82.4869
RA_OF_ASC_NODE = 267.5361
ARG_OF_PERICENTER = 277.4453
MEAN_ANOMALY   = 80.2501

EPHEMERIS_TYPE = 0
CLASSIFICATION_TYPE = U
NORAD_CAT_ID   = 270211
ELEMENT_SET_NO = 999
REV_AT_EPOCH   = 28835
BSTAR          = .15297708E-3
MEAN_MOTION_DOT = .53E-6
MEAN_MOTION_DDOT = 0

CCSDS_OMM_VERS = 2.0
CREATION_DATE  = 
ORIGINATOR     = 

OBJECT_NAME    = UNKNOWN
OBJECT_ID      = 
CENTER_NAME    = EARTH
REF_FRAME      = TEME
TIME_SYSTEM    = UTC
MEAN_ELEMENT_THEORY = SGP/SGP4

EPOCH          = 2026-01-03T10:53:18.458304
MEAN_MOTION    = 11.82276581
ECCENTRICITY   = .10332577
INCLINATION    = 83.2373
RA_OF_ASC_NODE = 269.1069
ARG_OF_PERICENTER = 60.8772
MEAN_ANOMALY   = 309.1725

EPHEMERIS_TYPE = 0
CLASSIFICATION_TYPE = U
NORAD_CAT_ID   = 270212
ELEMENT_SET_NO = 999
REV_AT_EPOCH   = 26189
BSTAR          = .18415033E-1
MEAN_MOTION_DOT = .5227E-4
MEAN_MOTION_DDOT = 0

CCSDS_OMM_VERS = 2.0
CREATION_DATE  = 
ORIGINATOR     = 

OBJECT_NAME    = UNKNOWN
OBJECT_ID      = 
CENTER_NAME    = EARTH
REF_FRAME      = TEME
TIME_SYSTEM    = UTC
MEAN_ELEMENT_THEORY = SGP/SGP4

EPOCH          = 2026-01-12T19:26:28.194720
MEAN_MOTION    = 14.41043489
ECCENTRICITY   = .0161814
INCLINATION    = 97.0582
RA_OF_ASC_NODE = 43.6913
ARG_OF_PERICENTER = 130.7519
MEAN_ANOMALY   = 230.7851

EPHEMERIS_TYPE = 0
CLASSIFICATION_TYPE = U
NORAD_CAT_ID   = 270213
ELEMENT_SET_NO = 999
REV_AT_EPOCH   = 8862
BSTAR          = .12228524E-2
MEAN_MOTION_DOT = .4564E-4
MEAN_MOTION_DDOT = 0

CCSDS_OMM_VERS = 2.0
CREATION_DATE  = 
ORIGINATOR     = 

OBJECT_NAME    = UNKNOWN
OBJECT_ID      = 
CENTER_NAME    = EARTH
REF_FRAME      = TEME
TIME_SYSTEM    = UTC
MEAN_ELEMENT_THEORY = SGP/SGP4

EPOCH          = 2026-01-16T19:37:05.292768
MEAN_MOTION    = 13.99123243
ECCENTRICITY   = .00169779
INCLINATION    = 82.5466
RA_OF_ASC_NODE = 49.9379
ARG_OF_PERICENTER = 66.2900
MEAN_ANOMALY   = 294.0048

EPHEMERIS_TYPE = 0
CLASSIFICATION_TYPE = U
NORAD_CAT_ID   = 270215
ELEMENT_SET_NO = 999
REV_AT_EPOCH   = 31213
BSTAR          = .12646856E-2
MEAN_MOTION_DOT = .1848E-4
MEAN_MOTION_DDOT = 0

CCSDS_OMM_VERS = 2.0
CREATION_DATE  = 
ORIGINATOR     = 

OBJECT_NAME    = UNKNOWN
OBJECT_ID      = 
CENTER_NAME    = EARTH
REF_FRAME      = TEME
TIME_SYSTEM    = UTC
MEAN_ELEMENT_THEORY = SGP/SGP4

EPOCH          = 2026-01-04T06:09:29.809728
MEAN_MOTION    = 13.05973377
ECCENTRICITY   = .0032152
INCLINATION    = 90.3127
RA_OF_ASC_NODE = 12.2444
ARG_OF_PERICENTER = 191.9101
MEAN_ANOMALY   = 168.1268

EPHEMERIS_TYPE = 0
CLASSIFICATION_TYPE = U
NORAD_CAT_ID   = 270216
ELEMENT_SET_NO = 999
REV_AT_EPOCH   = 28717
BSTAR          = .5415435E-3
MEAN_MOTION_DOT = .185E-5
MEAN_MOTION_DDOT = 0

CCSDS_OMM_VERS = 2.0
CREATION_DATE  = 
ORIGINATOR     = 

OBJECT_NAME    = UNKNOWN
OBJECT_ID      = 
CENTER_NAME    = EARTH
REF_FRAME      = TEME
TIME_SYSTEM    = UTC
MEAN_ELEMENT_THEORY = SGP/SGP4

EPOCH          = 2026-01-16T12:20:38.344416
MEAN_MOTION    = 12.11706002
ECCENTRICITY   = .08587625
INCLINATION    = 83.3290
RA_OF_ASC_NODE = 109.7078
ARG_OF_PERICENTER = 70.4974
MEAN_ANOMALY   = 298.6752

EPHEMERIS_TYPE = 0
CLASSIFICATION_TYPE = U
NORAD_CAT_ID   = 270217
ELEMENT_SET_NO = 999
REV_AT_EPOCH   = 27086
BSTAR          = -.25227669E-2
MEAN_MOTION_DOT = -.718E-5
MEAN_MOTION_DDOT = 0

CCSDS_OMM_VERS = 2.0
CREATION_DATE  = 
ORIGINATOR     = 

OBJECT_NAME    = UNKNOWN
OBJECT_ID      = 
CENTER_NAME    = EARTH
REF_FRAME      = TEME
TIME_SYSTEM    = UTC
MEAN_ELEMENT_THEORY = SGP/SGP4

EPOCH          = 2025-12-27T04:30:15.273792
MEAN_MOTION    = 13.59053379
ECCENTRICITY   = .05056707
INCLINATION    = 98.8544
RA_OF_ASC_NODE = 157.6038
ARG_OF_PERICENTER = 183.1576
MEAN_ANOMALY   = 176.6335

EPHEMERIS_TYPE = 0
CLASSIFICATION_TYPE = U
NORAD_CAT_ID   = 270218
ELEMENT_SET_NO = 999
REV_AT_EPOCH   = 29239
BSTAR          = .51404725E-2
MEAN_MOTION_DOT = .8779E-4
MEAN_MOTION_DDOT = 0

CCSDS_OMM_VERS = 2.0
CREATION_DATE  = 
ORIGINATOR     = 

OBJECT_NAME    = UNKNOWN
OBJECT_ID      = 
CENTER_NAME    = EARTH
REF_FRAME      = TEME
TIME_SYSTEM    = UTC
MEAN_ELEMENT_THEORY = SGP/SGP4

EPOCH          = 2026-01-14T15:56:57.586560
MEAN_MOTION    = 12.56931594
ECCENTRICITY   = .0028819
INCLINATION    = 101.9323
RA_OF_ASC_NODE = 359.4450
ARG_OF_PERICENTER = 153.7698
MEAN_ANOMALY   = 206.4842

EPHEMERIS_TYPE = 0
CLASSIFICATION_TYPE = U
NORAD_CAT_ID   = 270219
ELEMENT_SET_NO = 999
REV_AT_EPOCH   = 27960
BSTAR          = .22884389E-3
MEAN_MOTION_DOT = -.8E-7
MEAN_MOTION_DDOT = 0

CCSDS_OMM_VERS = 2.0
CREATION_DATE  = 
ORIGINATOR     = 

OBJECT_NAME    = UNKNOWN
OBJECT_ID      = 
CENTER_NAME    = EARTH
REF_FRAME      = TEME
TIME_SYSTEM    = UTC
MEAN_ELEMENT_THEORY = SGP/SGP4

EPOCH          = 2026-01-14T12:42:47.109024
MEAN_MOTION    = 14.48129704
ECCENTRICITY   = .00317072
INCLINATION    = 81.2113
RA_OF_ASC_NODE = 98.3754
ARG_OF_PERICENTER = 185.6958
MEAN_ANOMALY   = 174.3878

EPHEMERIS_TYPE = 0
CLASSIFICATION_TYPE = U
NORAD_CAT_ID   = 270220
ELEMENT_SET_NO = 999
REV_AT_EPOCH   = 31650
BSTAR          = .48587E-3
MEAN_MOTION_DOT = .1833E-4
MEAN_MOTION_DDOT = 0

